[{"OBJECT_NAME":"ONEWEB-0142","OBJECT_ID":"2020-100AG","EPOCH":"2026-01-15T01:43:31.524960","MEAN_MOTION":13.12444849,"ECCENTRICITY":0.0001789,"INCLINATION":87.8926,"RA_OF_ASC_NODE":21.0711,"ARG_OF_PERICENTER":102.8252,"MEAN_ANOMALY":257.3077,"EPHEMERIS_TYPE":0,"CLASSIFICATION_TYPE":"U","NORAD_CAT_ID":47288,"ELEMENT_SET_NO":999,"REV_AT_EPOCH":24458,"BSTAR":0.000859,"MEAN_MOTION_DOT":3.22e-6,"MEAN_MOTION_DDOT":0},{"OBJECT_NAME":"ONEWEB-0143","OBJECT_ID":"2020-100AH","EPOCH":"2026-01-14T22:18:25.532352","MEAN_MOTION":13.12441656,"ECCENTRICITY":0.0001769,"INCLINATION":87.8928,"RA_OF_ASC_NODE":21.0952,"ARG_OF_PERICENTER":89.6572,"MEAN_ANOMALY":270.4759,"EPHEMERIS_TYPE":0,"CLASSIFICATION_TYPE":"U","NORAD_CAT_ID":47289,"ELEMENT_SET_NO":999,"REV_AT_EPOCH":24454,"BSTAR":0.0011939,"MEAN_MOTION_DOT":4.42e-6,"MEAN_MOTION_DDOT":0},{"OBJECT_NAME":"ONEWEB-0144","OBJECT_ID":"2020-100AJ","EPOCH":"2026-01-15T01:16:28.285824","MEAN_MOTION":13.12443432,"ECCENTRICITY":0.0001515,"INCLINATION":87.893,"RA_OF_ASC_NODE":21.0393,"ARG_OF_PERICENTER":99.6137,"MEAN_ANOMALY":260.5163,"EPHEMERIS_TYPE":0,"CLASSIFICATION_TYPE":"U","NORAD_CAT_ID":47290,"ELEMENT_SET_NO":999,"REV_AT_EPOCH":24448,"BSTAR":-0.0010807,"MEAN_MOTION_DOT":-3.76e-6,"MEAN_MOTION_DDOT":0},{"OBJECT_NAME":"ONEWEB-0145","OBJECT_ID":"2020-100AK","EPOCH":"2026-01-15T00:35:00.521376","MEAN_MOTION":13.12440588,"ECCENTRICITY":0.000172,"INCLINATION":87.8929,"RA_OF_ASC_NODE":21.0841,"ARG_OF_PERICENTER":92.217,"MEAN_ANOMALY":267.9155,"EPHEMERIS_TYPE":0,"CLASSIFICATION_TYPE":"U","NORAD_CAT_ID":47291,"ELEMENT_SET_NO":999,"REV_AT_EPOCH":24467,"BSTAR":-0.00047289,"MEAN_MOTION_DOT":-1.57e-6,"MEAN_MOTION_DDOT":0},{"OBJECT_NAME":"ONEWEB-0146","OBJECT_ID":"2020-100AL","EPOCH":"2026-01-15T00:30:09.285120","MEAN_MOTION":13.12440359,"ECCENTRICITY":0.0001915,"INCLINATION":87.8927,"RA_OF_ASC_NODE":21.0702,"ARG_OF_PERICENTER":79.5777,"MEAN_ANOMALY":280.5567,"EPHEMERIS_TYPE":0,"CLASSIFICATION_TYPE":"U","NORAD_CAT_ID":47292,"ELEMENT_SET_NO":999,"REV_AT_EPOCH":24458,"BSTAR":-0.00026609,"MEAN_MOTION_DOT":-8.3e-7,"MEAN_MOTION_DDOT":0},{"OBJECT_NAME":"ONEWEB-0147","OBJECT_ID":"2020-100AM","EPOCH":"2026-01-15T01:31:07.296960","MEAN_MOTION":13.12444373,"ECCENTRICITY":0.0001501,"INCLINATION":87.8929,"RA_OF_ASC_NODE":21.0408,"ARG_OF_PERICENTER":85.3102,"MEAN_ANOMALY":274.8198,"EPHEMERIS_TYPE":0,"CLASSIFICATION_TYPE":"U","NORAD_CAT_ID":47293,"ELEMENT_SET_NO":999,"REV_AT_EPOCH":24448,"BSTAR":0.0006389,"MEAN_MOTION_DOT":2.43e-6,"MEAN_MOTION_DDOT":0},{"OBJECT_NAME":"ONEWEB-0115","OBJECT_ID":"2021-025A","EPOCH":"2026-01-14T23:34:52.280256","MEAN_MOTION":13.13485552,"ECCENTRICITY":0.0002,"INCLINATION":87.9001,"RA_OF_ASC_NODE":350.6624,"ARG_OF_PERICENTER":82.6791,"MEAN_ANOMALY":277.4566,"EPHEMERIS_TYPE":0,"CLASSIFICATION_TYPE":"U","NORAD_CAT_ID":48042,"ELEMENT_SET_NO":999,"REV_AT_EPOCH":23348,"BSTAR":-0.0040151,"MEAN_MOTION_DOT":-1.454e-5,"MEAN_MOTION_DDOT":0},{"OBJECT_NAME":"ONEWEB-0152","OBJECT_ID":"2021-025B","EPOCH":"2026-01-14T20:15:01.883520","MEAN_MOTION":13.13469805,"ECCENTRICITY":0.0001847,"INCLINATION":87.9001,"RA_OF_ASC_NODE":350.6946,"ARG_OF_PERICENTER":79.8073,"MEAN_ANOMALY":280.3265,"EPHEMERIS_TYPE":0,"CLASSIFICATION_TYPE":"U","NORAD_CAT_ID":48043,"ELEMENT_SET_NO":999,"REV_AT_EPOCH":23342,"BSTAR":0.00080393,"MEAN_MOTION_DOT":3.06e-6,"MEAN_MOTION_DDOT":0},{"OBJECT_NAME":"ONEWEB-0153","OBJECT_ID":"2021-025C","EPOCH":"2026-01-14T23:22:43.263840","MEAN_MOTION":13.13470975,"ECCENTRICITY":0.0001724,"INCLINATION":87.9,"RA_OF_ASC_NODE":350.6752,"ARG_OF_PERICENTER":86.1242,"MEAN_ANOMALY":274.0084,"EPHEMERIS_TYPE":0,"CLASSIFICATION_TYPE":"U","NORAD_CAT_ID":48044,"ELEMENT_SET_NO":999,"REV_AT_EPOCH":23343,"BSTAR":-0.00019163,"MEAN_MOTION_DOT":-5.7e-7,"MEAN_MOTION_DDOT":0},{"OBJECT_NAME":"ONEWEB-0154","OBJECT_ID":"2021-025D","EPOCH":"2026-01-14T23:17:50.720352","MEAN_MOTION":13.13470175,"ECCENTRICITY":0.0001706,"INCLINATION":87.9004,"RA_OF_ASC_NODE":350.6725,"ARG_OF_PERICENTER":81.9302,"MEAN_ANOMALY":278.202,"EPHEMERIS_TYPE":0,"CLASSIFICATION_TYPE":"U","NORAD_CAT_ID":48045,"ELEMENT_SET_NO":999,"REV_AT_EPOCH":23339,"BSTAR":-0.00027948,"MEAN_MOTION_DOT":-8.9e-7,"MEAN_MOTION_DDOT":0},{"OBJECT_NAME":"ONEWEB-0116","OBJECT_ID":"2021-025E","EPOCH":"2026-01-14T22:24:13.114368","MEAN_MOTION":13.13469432,"ECCENTRICITY":0.0001812,"INCLINATION":87.9006,"RA_OF_ASC_NODE":350.6653,"ARG_OF_PERICENTER":79.0106,"MEAN_ANOMALY":281.1227,"EPHEMERIS_TYPE":0,"CLASSIFICATION_TYPE":"U","NORAD_CAT_ID":48046,"ELEMENT_SET_NO":999,"REV_AT_EPOCH":23353,"BSTAR":7.1092e-5,"MEAN_MOTION_DOT":3.9e-7,"MEAN_MOTION_DDOT":0},{"OBJECT_NAME":"ONEWEB-0150","OBJECT_ID":"2021-025F","EPOCH":"2026-01-14T20:00:23.060736","MEAN_MOTION":13.13470784,"ECCENTRICITY":0.0001917,"INCLINATION":87.9008,"RA_OF_ASC_NODE":350.6815,"ARG_OF_PERICENTER":87.0555,"MEAN_ANOMALY":273.0794,"EPHEMERIS_TYPE":0,"CLASSIFICATION_TYPE":"U","NORAD_CAT_ID":48047,"ELEMENT_SET_NO":999,"REV_AT_EPOCH":23341,"BSTAR":0.00062677,"MEAN_MOTION_DOT":2.42e-6,"MEAN_MOTION_DDOT":0},{"OBJECT_NAME":"ONEWEB-0107","OBJECT_ID":"2021-025G","EPOCH":"2026-01-14T20:02:50.679456","MEAN_MOTION":13.1346979,"ECCENTRICITY":0.0001654,"INCLINATION":87.9006,"RA_OF_ASC_NODE":350.6774,"ARG_OF_PERICENTER":91.6655,"MEAN_ANOMALY":268.4664,"EPHEMERIS_TYPE":0,"CLASSIFICATION_TYPE":"U","NORAD_CAT_ID":48048,"ELEMENT_SET_NO":999,"REV_AT_EPOCH":23339,"BSTAR":0.00087899,"MEAN_MOTION_DOT":3.34e-6,"MEAN_MOTION_DDOT":0},{"OBJECT_NAME":"ONEWEB-0101","OBJECT_ID":"2021-025H","EPOCH":"2026-01-14T22:48:35.194176","MEAN_MOTION":13.1347005,"ECCENTRICITY":0.000165,"INCLINATION":87.8998,"RA_OF_ASC_NODE":350.6849,"ARG_OF_PERICENTER":85.0714,"MEAN_ANOMALY":275.0604,"EPHEMERIS_TYPE":0,"CLASSIFICATION_TYPE":"U","NORAD_CAT_ID":48049,"ELEMENT_SET_NO":999,"REV_AT_EPOCH":23338,"BSTAR":-0.00094476,"MEAN_MOTION_DOT":-3.32e-6,"MEAN_MOTION_DDOT":0},{"OBJECT_NAME":"ONEWEB-0113","OBJECT_ID":"2021-025J","EPOCH":"2026-01-14T22:53:17.647008","MEAN_MOTION":13.13987253,"ECCENTRICITY":0.0001985,"INCLINATION":87.9003,"RA_OF_ASC_NODE":350.6094,"ARG_OF_PERICENTER":80.4009,"MEAN_ANOMALY":279.7345,"EPHEMERIS_TYPE":0,"CLASSIFICATION_TYPE":"U","NORAD_CAT_ID":48050,"ELEMENT_SET_NO":999,"REV_AT_EPOCH":23348,"BSTAR":-0.00070951,"MEAN_MOTION_DOT":-2.48e-6,"MEAN_MOTION_DDOT":0},{"OBJECT_NAME":"ONEWEB-0112","OBJECT_ID":"2021-025K","EPOCH":"2026-01-14T20:10:08.362848","MEAN_MOTION":13.13469157,"ECCENTRICITY":0.0001516,"INCLINATION":87.9007,"RA_OF_ASC_NODE":350.6737,"ARG_OF_PERICENTER":85.6355,"MEAN_ANOMALY":274.4947,"EPHEMERIS_TYPE":0,"CLASSIFICATION_TYPE":"U","NORAD_CAT_ID":48051,"ELEMENT_SET_NO":999,"REV_AT_EPOCH":23346,"BSTAR":0.00086941,"MEAN_MOTION_DOT":3.3e-6,"MEAN_MOTION_DDOT":0},{"OBJECT_NAME":"ONEWEB-0156","OBJECT_ID":"2021-025L","EPOCH":"2026-01-14T20:22:19.800192","MEAN_MOTION":13.13471049,"ECCENTRICITY":0.0001773,"INCLINATION":87.9006,"RA_OF_ASC_NODE":350.6833,"ARG_OF_PERICENTER":88.0068,"MEAN_ANOMALY":272.1265,"EPHEMERIS_TYPE":0,"CLASSIFICATION_TYPE":"U","NORAD_CAT_ID":48052,"ELEMENT_SET_NO":999,"REV_AT_EPOCH":23344,"BSTAR":0.00064092,"MEAN_MOTION_DOT":2.47e-6,"MEAN_MOTION_DDOT":0}]
