ONEWEB-0142             
1 47288U 20100AG  26015.07189265  .00000322  00000+0  85900-3 0  9995
2 47288  87.8926  21.0711 0001789 102.8252 257.3077 13.12444849244582
ONEWEB-0143             
1 47289U 20100AH  26014.92946218  .00000442  00000+0  11939-2 0  9991
2 47289  87.8928  21.0952 0001769  89.6572 270.4759 13.12441656244549
ONEWEB-0144             
1 47290U 20100AJ  26015.05310516 -.00000376  00000+0 -10807-2 0  9995
2 47290  87.8930  21.0393 0001515  99.6137 260.5163 13.12443432244486
ONEWEB-0145             
1 47291U 20100AK  26015.02431159 -.00000157  00000+0 -47289-3 0  9992
2 47291  87.8929  21.0841 0001720  92.2170 267.9155 13.12440588244679
ONEWEB-0146             
1 47292U 20100AL  26015.02094080 -.00000083  00000+0 -26609-3 0  9992
2 47292  87.8927  21.0702 0001915  79.5777 280.5567 13.12440359244585
ONEWEB-0147             
1 47293U 20100AM  26015.06327890  .00000243  00000+0  63890-3 0  9994
2 47293  87.8929  21.0408 0001501  85.3102 274.8198 13.12444373244484
ONEWEB-0115             
1 48042U 21025A   26014.98254954 -.00001454  00000+0 -40151-2 0  9995
2 48042  87.9001 350.6624 0002000  82.6791 277.4566 13.13485552233480
ONEWEB-0152             
1 48043U 21025B   26014.84377180  .00000306  00000+0  80393-3 0  9994
2 48043  87.9001 350.6946 0001847  79.8073 280.3265 13.13469805233423
ONEWEB-0153             
1 48044U 21025C   26014.97411185 -.00000057  00000+0 -19163-3 0  9995
2 48044  87.9000 350.6752 0001724  86.1242 274.0084 13.13470975233431
ONEWEB-0154             
1 48045U 21025D   26014.97072593 -.00000089  00000+0 -27948-3 0  9997
2 48045  87.9004 350.6725 0001706  81.9302 278.2020 13.13470175233399
ONEWEB-0116             
1 48046U 21025E   26014.93348512  .00000039  00000+0  71092-4 0  9994
2 48046  87.9006 350.6653 0001812  79.0106 281.1227 13.13469432233532
ONEWEB-0150             
1 48047U 21025F   26014.83360024  .00000242  00000+0  62677-3 0  9990
2 48047  87.9008 350.6815 0001917  87.0555 273.0794 13.13470784233416
ONEWEB-0107             
1 48048U 21025G   26014.83530879  .00000334  00000+0  87899-3 0  9993
2 48048  87.9006 350.6774 0001654  91.6655 268.4664 13.13469790233395
ONEWEB-0101             
1 48049U 21025H   26014.95040734 -.00000332  00000+0 -94476-3 0  9992
2 48049  87.8998 350.6849 0001650  85.0714 275.0604 13.13470050233385
ONEWEB-0113             
1 48050U 21025J   26014.95367647 -.00000248  00000+0 -70951-3 0  9997
2 48050  87.9003 350.6094 0001985  80.4009 279.7345 13.13987253233486
ONEWEB-0112             
1 48051U 21025K   26014.84037457  .00000330  00000+0  86941-3 0  9995
2 48051  87.9007 350.6737 0001516  85.6355 274.4947 13.13469157233462
ONEWEB-0156             
1 48052U 21025L   26014.84884028  .00000247  00000+0  64092-3 0  9990
2 48052  87.9006 350.6833 0001773  88.0068 272.1265 13.13471049233441
